     3.02           N: GNSS NAV DATA    E: GALILEO          RINEX VERSION / TYPE
Spider v7.5.1.8670  SMO                 20240925 080444 UTC PGM / RUN BY / DATE
GAL    2.0050D+02  2.7734D-01  7.3853D-03  0.0000D+00       IONOSPHERIC CORR
GAUT -1.8626451492D-09 8.881784197D-16 259200 2333          TIME SYSTEM CORR
GPGA -2.2118911147D-09 1.332267630D-15 259200 2333          TIME SYSTEM CORR
    18    18  2185     7                                    LEAP SECONDS
                                                            END OF HEADER
E09 2024 09 25 06 40 00-6.023813039064D-04-1.396927018504D-11 0.000000000000D+00
     9.100000000000D+01-9.231250000000D+01 2.890120365251D-09 1.848294525983D+00
    -4.416331648827D-06 3.264930564910D-04 8.484348654747D-06 5.440620998383D+03
     2.832000000000D+05 5.587935447693D-08 2.047225350673D+00-2.235174179077D-08
     9.679494594602D-01 1.634687500000D+02 6.084690546185D-01-5.434512083528D-09
     1.360770940373D-10 5.170000000000D+02 2.333000000000D+03 0.000000000000D+00
     3.120000000000D+00 0.000000000000D+00 6.984919309616D-10 1.396983861923D-09
     2.838640000000D+05
E10 2024 09 25 04 20 00-6.589177064598D-04-2.586375558167D-12 0.000000000000D+00
     7.700000000000D+01 3.690625000000D+01 2.627966511071D-09 1.038811116321D+00
     1.894310116768D-06 3.000487340614D-04 2.818182110786D-06 5.440607040405D+03
     2.748000000000D+05 1.247972249985D-07-4.537745422168D-02-1.490116119385D-08
     1.000241993602D+00 2.960625000000D+02 2.860022462890D+00-5.580232439080D-09
    -7.321733497268D-11 2.580000000000D+02 2.333000000000D+03 0.000000000000D+00
     3.120000000000D+00 0.000000000000D+00-1.164153218269D-09 0.000000000000D+00
     2.755000000000D+05
E10 2024 09 25 04 30 00-6.589180557057D-04-2.600586412882D-12 0.000000000000D+00
     7.800000000000D+01 3.734375000000D+01 2.626180828358D-09 1.112271028336D+00
     1.918524503708D-06 2.999966964126D-04 2.941116690636D-06 5.440607599258D+03
     2.754000000000D+05 1.322478055954D-07-4.538086135789D-02 3.725290298462D-09
     1.000241886809D+00 2.938125000000D+02 2.860948122841D+00-5.581661070016D-09
    -6.143113101542D-11 5.170000000000D+02 2.333000000000D+03 0.000000000000D+00
     3.120000000000D+00 0.000000000000D+00-1.164153218269D-09 2.328306436539D-10
     2.760640000000D+05
E11 2024 09 25 04 30 00 1.531452347990D-03-1.562199258842D-10-3.469446951954D-18
     7.800000000000D+01 3.037500000000D+01 2.708684165853D-09 2.063242286277D+00
     1.525506377220D-06 2.196817658842D-04 2.194195985794D-06 5.440608531952D+03
     2.754000000000D+05 7.078051567078D-08-4.263025498981D-02-8.754432201385D-08
     9.972943541129D-01 3.057500000000D+02 1.484903284685D+00-5.593447275245D-09
    -1.021471102147D-10 2.580000000000D+02 2.333000000000D+03 0.000000000000D+00
     3.120000000000D+00 0.000000000000D+00-1.466833055019D-08 0.000000000000D+00
     2.761000000000D+05
E11 2024 09 25 04 30 00 1.531451474875D-03-1.562199258842D-10-3.469446951954D-18
     7.800000000000D+01 3.037500000000D+01 2.708684165853D-09 2.063242286277D+00
     1.525506377220D-06 2.196817658842D-04 2.194195985794D-06 5.440608531952D+03
     2.754000000000D+05 7.078051567078D-08-4.263025498981D-02-8.754432201385D-08
     9.972943541129D-01 3.057500000000D+02 1.484903284685D+00-5.593447275245D-09
    -1.021471102147D-10 5.170000000000D+02 2.333000000000D+03 0.000000000000D+00
     3.120000000000D+00 0.000000000000D+00-1.466833055019D-08-1.536682248116D-08
     2.760640000000D+05
E12 2024 09 25 03 20 00-1.224518928211D-03-1.615774181118D-11 0.000000000000D+00
     7.100000000000D+01 3.384375000000D+01 2.642252860952D-09-2.748917800740D+00
     1.743435859680D-06 1.126505667344D-04 2.646818757057D-06 5.440616062164D+03
     2.712000000000D+05 9.499490261078D-08-4.260413166166D-02-1.490116119385D-08
     9.973068415816D-01 2.985625000000D+02 2.873040088738D-01-5.584161174156D-09
    -8.678933266504D-11 2.580000000000D+02 2.333000000000D+03 0.000000000000D+00
     3.120000000000D+00 0.000000000000D+00-1.187436282635D-08 0.000000000000D+00
     2.719000000000D+05
E12 2024 09 25 03 20 00-1.224518578965D-03-1.621458523005D-11 0.000000000000D+00
     7.100000000000D+01 3.384375000000D+01 2.642252860952D-09-2.748917800740D+00
     1.743435859680D-06 1.126505667344D-04 2.646818757057D-06 5.440616062164D+03
     2.712000000000D+05 9.499490261078D-08-4.260413166166D-02-1.490116119385D-08
     9.973068415816D-01 2.985625000000D+02 2.873040088738D-01-5.584161174156D-09
    -8.678933266504D-11 5.170000000000D+02 2.333000000000D+03 0.000000000000D+00
     3.120000000000D+00 0.000000000000D+00-1.187436282635D-08-1.140870153904D-08
     2.718640000000D+05
E13 2024 09 24 17 10 00-2.509879413992D-05-3.836930773105D-13 0.000000000000D+00
     1.000000000000D+01-2.250000000000D+00 2.504390028690D-09-2.640477347943D+00
    -1.601874828339D-07 1.681533176452D-04 1.199543476105D-06 5.440606769562D+03
     2.346000000000D+05-1.117587089539D-08-4.327299097377D-02-3.166496753693D-08
     1.000395215253D+00 3.287500000000D+02-1.987815039104D+00-5.640592096159D-09
     7.107438942944D-11 2.580000000000D+02 2.333000000000D+03 0.000000000000D+00
     3.120000000000D+00 0.000000000000D+00 3.958120942116D-09 0.000000000000D+00
     2.353000000000D+05
E13 2024 09 24 17 10 00-2.509797923267D-05-3.836930773105D-13 0.000000000000D+00
     1.000000000000D+01-2.250000000000D+00 2.504390028690D-09-2.640477347943D+00
    -1.601874828339D-07 1.681533176452D-04 1.199543476105D-06 5.440606769562D+03
     2.346000000000D+05-1.117587089539D-08-4.327299097377D-02-3.166496753693D-08
     1.000395215253D+00 3.287500000000D+02-1.987815039104D+00-5.640592096159D-09
     7.107438942944D-11 5.170000000000D+02 2.333000000000D+03 0.000000000000D+00
     3.120000000000D+00 0.000000000000D+00 3.958120942116D-09 4.423782229424D-09
     2.352640000000D+05
E14 2024 09 24 13 00 00 2.475939691067D-04 2.567901447037D-11 0.000000000000D+00
     1.120000000000D+02 1.941250000000D+02 3.855874730618D-09-2.320467037566D+00
     9.242445230484D-06 1.611149432138D-01 7.797032594681D-06 5.289392101288D+03
     2.196000000000D+05-2.708286046982D-06-1.101579357385D+00 1.998618245125D-06
     8.649166716396D-01 2.211562500000D+02 2.721194062164D+00-6.118111986779D-09
    -1.921508646641D-10 2.580000000000D+02 2.333000000000D+03 0.000000000000D+00
     3.120000000000D+00 1.600000000000D+01-2.793967723846D-09 0.000000000000D+00
     2.205500000000D+05
E14 2024 09 24 13 00 00 2.475937362760D-04 2.567901447037D-11 0.000000000000D+00
     1.120000000000D+02 1.941250000000D+02 3.855874730618D-09-2.320467037566D+00
     9.242445230484D-06 1.611149432138D-01 7.797032594681D-06 5.289392101288D+03
     2.196000000000D+05-2.708286046982D-06-1.101579357385D+00 1.998618245125D-06
     8.649166716396D-01 2.211562500000D+02 2.721194062164D+00-6.118111986779D-09
    -1.921508646641D-10 5.170000000000D+02 2.333000000000D+03 0.000000000000D+00
     3.120000000000D+00 1.300000000000D+02-2.793967723846D-09-3.259629011154D-09
     2.202940000000D+05
E15 2024 09 24 13 50 00-1.290700747631D-04-2.273736754432D-12 0.000000000000D+00
     1.170000000000D+02-2.218750000000D+00 2.646538765916D-09 2.874434074117D+00
    -4.023313522339D-07 2.287246752530D-04 1.233071088791D-06 5.440602872849D+03
     2.226000000000D+05-3.166496753693D-08-4.327806437367D-02-3.725290298462D-09
     1.000350337315D+00 3.327812500000D+02-1.909341054370D+00-5.641663569361D-09
     9.786121912825D-11 2.580000000000D+02 2.333000000000D+03 0.000000000000D+00
     3.120000000000D+00 0.000000000000D+00 4.889443516731D-09 0.000000000000D+00
     2.233000000000D+05
E15 2024 09 25 06 40 00-1.292082597502D-04-2.330580173293D-12 0.000000000000D+00
     9.100000000000D+01 3.678125000000D+01 2.687611910801D-09-2.183392699024D+00
     1.737847924232D-06 2.303647343069D-04 1.871958374977D-06 5.440604600906D+03
     2.832000000000D+05-9.685754776001D-08-4.361572342138D-02-2.980232238770D-08
     1.000351494484D+00 3.188437500000D+02-1.904961510665D+00-5.584518331890D-09
     6.071681352138D-11 5.170000000000D+02 2.333000000000D+03 0.000000000000D+00
     3.120000000000D+00 0.000000000000D+00 4.190951585770D-09 5.122274160385D-09
     2.838640000000D+05
E18 2024 09 21 11 10 00 5.720907938667D-04 4.277467269276D-11 0.000000000000D+00
     4.200000000000D+01 1.331875000000D+02 5.284863213717D-09 2.543999484956D+00
     6.528571248055D-06 1.611461702269D-01-1.795589923859D-06 5.289382667542D+03
     5.586000000000D+05-1.540407538414D-06-9.628874834886D-01 2.190470695496D-06
     8.646383938997D-01 3.705000000000D+02 2.705369055560D+00-6.569916520537D-09
    -8.214627762737D-12 2.580000000000D+02 2.332000000000D+03 0.000000000000D+00
     3.120000000000D+00 1.600000000000D+01-6.053596735001D-09 0.000000000000D+00
     5.598000000000D+05
E18 2024 09 21 11 10 00 5.720906774513D-04 4.277467269276D-11 0.000000000000D+00
     4.200000000000D+01 1.331875000000D+02 5.284863213717D-09 2.543999484956D+00
     6.528571248055D-06 1.611461702269D-01-1.795589923859D-06 5.289382667542D+03
     5.586000000000D+05-1.540407538414D-06-9.628874834886D-01 2.190470695496D-06
     8.646383938997D-01 3.705000000000D+02 2.705369055560D+00-6.569916520537D-09
    -8.214627762737D-12 5.170000000000D+02 2.332000000000D+03 0.000000000000D+00
     3.120000000000D+00 1.300000000000D+02-6.053596735001D-09-6.519258022308D-09
     5.597740000000D+05
